CCSDS_OMM_VERS = 2.0
CREATION_DATE  = 
ORIGINATOR     = 

OBJECT_NAME    = COSMOS 1933
OBJECT_ID      = 1988-020A
CENTER_NAME    = EARTH
REF_FRAME      = TEME
TIME_SYSTEM    = UTC
MEAN_ELEMENT_THEORY = SGP/SGP4

EPOCH          = 2026-02-27T12:09:13.500000
MEAN_MOTION    = 15.17875623
ECCENTRICITY   = .0002977
INCLINATION    = 82.5099
RA_OF_ASC_NODE = 260.9893
ARG_OF_PERICENTER = 220.4705
MEAN_ANOMALY   = 139.6308

EPHEMERIS_TYPE = 0
CLASSIFICATION_TYPE = U
NORAD_CAT_ID   = 18958
ELEMENT_SET_NO = 999
REV_AT_EPOCH   = 4868
BSTAR          = .23109E-3
MEAN_MOTION_DOT = .471E-4
MEAN_MOTION_DDOT = 0

CCSDS_OMM_VERS = 2.0
CREATION_DATE  = 
ORIGINATOR     = 

OBJECT_NAME    = SL-3 R/B
OBJECT_ID      = 1988-032B
CENTER_NAME    = EARTH
REF_FRAME      = TEME
TIME_SYSTEM    = UTC
MEAN_ELEMENT_THEORY = SGP/SGP4

EPOCH          = 2026-02-27T15:49:20.478720
MEAN_MOTION    = 15.19765668
ECCENTRICITY   = .0024056
INCLINATION    = 97.5171
RA_OF_ASC_NODE = 41.9479
ARG_OF_PERICENTER = 269.2915
MEAN_ANOMALY   = 90.5563

EPHEMERIS_TYPE = 0
CLASSIFICATION_TYPE = U
NORAD_CAT_ID   = 19046
ELEMENT_SET_NO = 999
REV_AT_EPOCH   = 5058
BSTAR          = .25519E-3
MEAN_MOTION_DOT = .5429E-4
MEAN_MOTION_DDOT = 0

CCSDS_OMM_VERS = 2.0
CREATION_DATE  = 
ORIGINATOR     = 

OBJECT_NAME    = SL-16 R/B
OBJECT_ID      = 1988-039B
CENTER_NAME    = EARTH
REF_FRAME      = TEME
TIME_SYSTEM    = UTC
MEAN_ELEMENT_THEORY = SGP/SGP4

EPOCH          = 2026-02-27T11:33:10.301472
MEAN_MOTION    = 14.19614306
ECCENTRICITY   = .0022151
INCLINATION    = 71.0129
RA_OF_ASC_NODE = 90.1354
ARG_OF_PERICENTER = 349.5199
MEAN_ANOMALY   = 10.5461

EPHEMERIS_TYPE = 0
CLASSIFICATION_TYPE = U
NORAD_CAT_ID   = 19120
ELEMENT_SET_NO = 999
REV_AT_EPOCH   = 95693
BSTAR          = .98778E-4
MEAN_MOTION_DOT = .161E-5
MEAN_MOTION_DDOT = 0

CCSDS_OMM_VERS = 2.0
CREATION_DATE  = 
ORIGINATOR     = 

OBJECT_NAME    = COSMOS 1953
OBJECT_ID      = 1988-050A
CENTER_NAME    = EARTH
REF_FRAME      = TEME
TIME_SYSTEM    = UTC
MEAN_ELEMENT_THEORY = SGP/SGP4

EPOCH          = 2026-02-27T13:02:25.243872
MEAN_MOTION    = 15.28306593
ECCENTRICITY   = .0012042
INCLINATION    = 82.5106
RA_OF_ASC_NODE = 168.4468
ARG_OF_PERICENTER = 155.6350
MEAN_ANOMALY   = 204.5461

EPHEMERIS_TYPE = 0
CLASSIFICATION_TYPE = U
NORAD_CAT_ID   = 19210
ELEMENT_SET_NO = 999
REV_AT_EPOCH   = 3623
BSTAR          = .32124E-3
MEAN_MOTION_DOT = .8907E-4
MEAN_MOTION_DDOT = 0

CCSDS_OMM_VERS = 2.0
CREATION_DATE  = 
ORIGINATOR     = 

OBJECT_NAME    = SL-8 R/B
OBJECT_ID      = 1988-053B
CENTER_NAME    = EARTH
REF_FRAME      = TEME
TIME_SYSTEM    = UTC
MEAN_ELEMENT_THEORY = SGP/SGP4

EPOCH          = 2026-02-27T11:54:21.650688
MEAN_MOTION    = 14.38908616
ECCENTRICITY   = .0021145
INCLINATION    = 74.0475
RA_OF_ASC_NODE = 131.2557
ARG_OF_PERICENTER = 312.0814
MEAN_ANOMALY   = 58.4718

EPHEMERIS_TYPE = 0
CLASSIFICATION_TYPE = U
NORAD_CAT_ID   = 19257
ELEMENT_SET_NO = 999
REV_AT_EPOCH   = 97513
BSTAR          = .80979E-4
MEAN_MOTION_DOT = .224E-5
MEAN_MOTION_DDOT = 0

CCSDS_OMM_VERS = 2.0
CREATION_DATE  = 
ORIGINATOR     = 

OBJECT_NAME    = COSMOS 1975
OBJECT_ID      = 1988-093A
CENTER_NAME    = EARTH
REF_FRAME      = TEME
TIME_SYSTEM    = UTC
MEAN_ELEMENT_THEORY = SGP/SGP4

EPOCH          = 2026-02-27T10:38:10.817664
MEAN_MOTION    = 15.27884704
ECCENTRICITY   = .0011206
INCLINATION    = 82.5206
RA_OF_ASC_NODE = 127.9687
ARG_OF_PERICENTER = 199.0535
MEAN_ANOMALY   = 161.0287

EPHEMERIS_TYPE = 0
CLASSIFICATION_TYPE = U
NORAD_CAT_ID   = 19573
ELEMENT_SET_NO = 999
REV_AT_EPOCH   = 1784
BSTAR          = .31075E-3
MEAN_MOTION_DOT = .8504E-4
MEAN_MOTION_DDOT = 0

CCSDS_OMM_VERS = 2.0
CREATION_DATE  = 
ORIGINATOR     = 

OBJECT_NAME    = SL-14 R/B
OBJECT_ID      = 1988-093B
CENTER_NAME    = EARTH
REF_FRAME      = TEME
TIME_SYSTEM    = UTC
MEAN_ELEMENT_THEORY = SGP/SGP4

EPOCH          = 2026-02-27T17:09:35.993952
MEAN_MOTION    = 14.85641926
ECCENTRICITY   = .0022289
INCLINATION    = 82.5285
RA_OF_ASC_NODE = 51.4087
ARG_OF_PERICENTER = 72.5089
MEAN_ANOMALY   = 100.2838

EPHEMERIS_TYPE = 0
CLASSIFICATION_TYPE = U
NORAD_CAT_ID   = 19574
ELEMENT_SET_NO = 999
REV_AT_EPOCH   = 99955
BSTAR          = .61981E-4
MEAN_MOTION_DOT = .564E-5
MEAN_MOTION_DDOT = 0

CCSDS_OMM_VERS = 2.0
CREATION_DATE  = 
ORIGINATOR     = 

OBJECT_NAME    = SL-16 R/B
OBJECT_ID      = 1988-102B
CENTER_NAME    = EARTH
REF_FRAME      = TEME
TIME_SYSTEM    = UTC
MEAN_ELEMENT_THEORY = SGP/SGP4

EPOCH          = 2026-02-27T14:12:47.211840
MEAN_MOTION    = 14.16149999
ECCENTRICITY   = .0013342
INCLINATION    = 71.0003
RA_OF_ASC_NODE = 172.7413
ARG_OF_PERICENTER = 16.9543
MEAN_ANOMALY   = 343.2023

EPHEMERIS_TYPE = 0
CLASSIFICATION_TYPE = U
NORAD_CAT_ID   = 19650
ELEMENT_SET_NO = 999
REV_AT_EPOCH   = 92546
BSTAR          = -.95952E-4
MEAN_MOTION_DOT = -.238E-5
MEAN_MOTION_DDOT = 0

CCSDS_OMM_VERS = 2.0
CREATION_DATE  = 
ORIGINATOR     = 

OBJECT_NAME    = INTERCOSMOS 24
OBJECT_ID      = 1989-080A
CENTER_NAME    = EARTH
REF_FRAME      = TEME
TIME_SYSTEM    = UTC
MEAN_ELEMENT_THEORY = SGP/SGP4

EPOCH          = 2026-02-27T09:32:16.207584
MEAN_MOTION    = 12.59539744
ECCENTRICITY   = .1186968
INCLINATION    = 82.6039
RA_OF_ASC_NODE = 111.1061
ARG_OF_PERICENTER = 316.7331
MEAN_ANOMALY   = 34.6214

EPHEMERIS_TYPE = 0
CLASSIFICATION_TYPE = U
NORAD_CAT_ID   = 20261
ELEMENT_SET_NO = 999
REV_AT_EPOCH   = 66550
BSTAR          = .18998E-3
MEAN_MOTION_DOT = .642E-5
MEAN_MOTION_DDOT = 0

CCSDS_OMM_VERS = 2.0
CREATION_DATE  = 
ORIGINATOR     = 

OBJECT_NAME    = SL-14 R/B
OBJECT_ID      = 1989-080C
CENTER_NAME    = EARTH
REF_FRAME      = TEME
TIME_SYSTEM    = UTC
MEAN_ELEMENT_THEORY = SGP/SGP4

EPOCH          = 2026-02-27T15:12:02.631456
MEAN_MOTION    = 12.50478257
ECCENTRICITY   = .1230173
INCLINATION    = 82.5970
RA_OF_ASC_NODE = 179.6401
ARG_OF_PERICENTER = 207.7322
MEAN_ANOMALY   = 145.2627

EPHEMERIS_TYPE = 0
CLASSIFICATION_TYPE = U
NORAD_CAT_ID   = 20262
ELEMENT_SET_NO = 999
REV_AT_EPOCH   = 65889
BSTAR          = .18847E-3
MEAN_MOTION_DOT = .633E-5
MEAN_MOTION_DDOT = 0

CCSDS_OMM_VERS = 2.0
CREATION_DATE  = 
ORIGINATOR     = 

OBJECT_NAME    = DELTA 1 R/B
OBJECT_ID      = 1989-089B
CENTER_NAME    = EARTH
REF_FRAME      = TEME
TIME_SYSTEM    = UTC
MEAN_ELEMENT_THEORY = SGP/SGP4

EPOCH          = 2026-02-27T11:33:04.784832
MEAN_MOTION    = 14.50653348
ECCENTRICITY   = .0069789
INCLINATION    = 97.0712
RA_OF_ASC_NODE = 267.5433
ARG_OF_PERICENTER = 153.8021
MEAN_ANOMALY   = 206.6735

EPHEMERIS_TYPE = 0
CLASSIFICATION_TYPE = U
NORAD_CAT_ID   = 20323
ELEMENT_SET_NO = 999
REV_AT_EPOCH   = 89425
BSTAR          = .1025E-3
MEAN_MOTION_DOT = .38E-5
MEAN_MOTION_DDOT = 0

CCSDS_OMM_VERS = 2.0
CREATION_DATE  = 
ORIGINATOR     = 

OBJECT_NAME    = ARIANE 40 R/B
OBJECT_ID      = 1990-005H
CENTER_NAME    = EARTH
REF_FRAME      = TEME
TIME_SYSTEM    = UTC
MEAN_ELEMENT_THEORY = SGP/SGP4

EPOCH          = 2026-02-27T09:21:21.940992
MEAN_MOTION    = 14.39862586
ECCENTRICITY   = .0009223
INCLINATION    = 98.3107
RA_OF_ASC_NODE = 119.3571
ARG_OF_PERICENTER = 230.8955
MEAN_ANOMALY   = 129.1414

EPHEMERIS_TYPE = 0
CLASSIFICATION_TYPE = U
NORAD_CAT_ID   = 20443
ELEMENT_SET_NO = 999
REV_AT_EPOCH   = 89132
BSTAR          = .10122E-3
MEAN_MOTION_DOT = .276E-5
MEAN_MOTION_DDOT = 0

