COSMOS 1933             
1 18958U 88020A   26058.50640625  .00004710  00000+0  23109-3 0  9997
2 18958  82.5099 260.9893 0002977 220.4705 139.6308 15.17875623 48689
SL-3 R/B                
1 19046U 88032B   26058.65926480  .00005429  00000+0  25519-3 0  9996
2 19046  97.5171  41.9479 0024056 269.2915  90.5563 15.19765668 50587
SL-16 R/B               
1 19120U 88039B   26058.48136923  .00000161  00000+0  98778-4 0  9998
2 19120  71.0129  90.1354 0022151 349.5199  10.5461 14.19614306956932
COSMOS 1953             
1 19210U 88050A   26058.54334773  .00008907  00000+0  32124-3 0  9999
2 19210  82.5106 168.4468 0012042 155.6350 204.5461 15.28306593 36236
SL-8 R/B                
1 19257U 88053B   26058.49608392  .00000224  00000+0  80979-4 0  9994
2 19257  74.0475 131.2557 0021145 312.0814  58.4718 14.38908616975133
COSMOS 1975             
1 19573U 88093A   26058.44318076  .00008504  00000+0  31075-3 0  9992
2 19573  82.5206 127.9687 0011206 199.0535 161.0287 15.27884704 17843
SL-14 R/B               
1 19574U 88093B   26058.71499993  .00000564  00000+0  61981-4 0  9999
2 19574  82.5285  51.4087 0022289  72.5089 100.2838 14.85641926999552
SL-16 R/B               
1 19650U 88102B   26058.59221310 -.00000238  00000+0 -95952-4 0  9992
2 19650  71.0003 172.7413 0013342  16.9543 343.2023 14.16149999925466
INTERCOSMOS 24          
1 20261U 89080A   26058.39740981  .00000642  00000+0  18998-3 0  9997
2 20261  82.6039 111.1061 1186968 316.7331  34.6214 12.59539744665506
SL-14 R/B               
1 20262U 89080C   26058.63336379  .00000633  00000+0  18847-3 0  9990
2 20262  82.5970 179.6401 1230173 207.7322 145.2627 12.50478257658897
DELTA 1 R/B             
1 20323U 89089B   26058.48130538  .00000380  00000+0  10250-3 0  9998
2 20323  97.0712 267.5433 0069789 153.8021 206.6735 14.50653348894253
ARIANE 40 R/B           
1 20443U 90005H   26058.38983728  .00000276  00000+0  10122-3 0  9999
2 20443  98.3107 119.3571 0009223 230.8955 129.1414 14.39862586891325
